*******************************************************************************
Ephemeris / WWW_USER Mon Jun 23 11:23:17 2025 Pasadena, USA      / Horizons
*******************************************************************************
Target body name: Moon (301)                      {source: DE441}
Center body name: Solar System Barycenter (0)     {source: DE441}
Center-site name: BODY CENTER
*******************************************************************************
Start time      : A.D. 1970-Mar-01 00:00:00.0000 TDB
Stop  time      : A.D. 1970-Apr-30 00:00:00.0000 TDB
Step-size       : 720 minutes
*******************************************************************************
Center geodetic : 0.0, 0.0, 0.0                   {E-lon(deg),Lat(deg),Alt(km)}
Center cylindric: 0.0, 0.0, 0.0                   {E-lon(deg),Dxy(km),Dz(km)}
Center radii    : (undefined)
Output units    : AU-D
Calendar mode   : Mixed Julian/Gregorian
Output type     : GEOMETRIC cartesian states
Output format   : 3 (position, velocity, LT, range, range-rate)
Reference frame : Ecliptic of J2000.0
*******************************************************************************
JDTDB
   X     Y     Z
   VX    VY    VZ
   LT    RG    RR
*******************************************************************************
$$SOE
2440646.500000000 = A.D. 1970-Mar-01 00:00:00.0000 TDB 
 X =-9.302069913435148E-01 Y = 3.320557270842217E-01 Z =-2.721513823896369E-04
 VX=-5.487987209986573E-03 VY=-1.644784294936168E-02 VZ=-1.148318026124788E-06
 LT= 5.704464359892519E-03 RG= 9.876973861968856E-01 RR=-3.610782724058481E-04
2440647.000000000 = A.D. 1970-Mar-01 12:00:00.0000 TDB 
 X =-9.329098539032513E-01 Y = 3.238358584879040E-01 Z =-2.711031294053970E-04
 VX=-5.324664615424702E-03 VY=-1.643086416185117E-02 VZ= 5.354796205408922E-06
 LT= 5.703424603442925E-03 RG= 9.875173579483504E-01 RR=-3.579404067670414E-04
2440647.500000000 = A.D. 1970-Mar-02 00:00:00.0000 TDB 
 X =-9.355329069095687E-01 Y = 3.156255580853308E-01 Z =-2.667908967411961E-04
 VX=-5.168844929894221E-03 VY=-1.640971831805578E-02 VZ= 1.189177991614316E-05
 LT= 5.702403511207783E-03 RG= 9.873405613083699E-01 RR=-3.481120553721317E-04
2440648.000000000 = A.D. 1970-Mar-02 12:00:00.0000 TDB 
 X =-9.380800380720459E-01 Y = 3.074266774349655E-01 Z =-2.592221255916984E-04
 VX=-5.021056980931533E-03 VY=-1.638535269649910E-02 VZ= 1.836387518116423E-05
 LT= 5.701420707483249E-03 RG= 9.871703941184944E-01 RR=-3.313976761483957E-04
2440648.500000000 = A.D. 1970-Mar-03 00:00:00.0000 TDB 
 X =-9.405553728942856E-01 Y = 2.992405657901843E-01 Z =-2.484554125229743E-04
 VX=-4.881718365660675E-03 VY=-1.635882814095486E-02 VZ= 2.466545108660888E-05
 LT= 5.700496242231550E-03 RG= 9.870103279220691E-01 RR=-3.077016222201742E-04
2440649.000000000 = A.D. 1970-Mar-03 12:00:00.0000 TDB 
 X =-9.429632117494864E-01 Y = 2.910680155850952E-01 Z =-2.346035369373725E-04
 VX=-4.751105913821141E-03 VY=-1.633130868542873E-02 VZ= 3.068576331536908E-05
 LT= 5.699650270972273E-03 RG= 9.868638525391288E-01 RR=-2.770500889274138E-04
2440649.500000000 = A.D. 1970-Mar-04 00:00:00.0000 TDB 
 X =-9.453079519202515E-01 Y = 2.829092151946603E-01 Z =-2.178354168187996E-04
 VX=-4.629325477345830E-03 VY=-1.630404258034853E-02 VZ= 3.631149242824472E-05
 LT= 5.698902671985327E-03 RG= 9.867344097871464E-01 RR=-2.396122124947395E-04
2440650.000000000 = A.D. 1970-Mar-04 12:00:00.0000 TDB 
 X =-9.475939949315819E-01 Y = 2.747637135889891E-01 Z =-1.983765940093141E-04
 VX=-4.516283848315548E-03 VY=-1.627833356720192E-02 VZ= 4.143008308870805E-05
 LT= 5.698272606769576E-03 RG= 9.866253173768045E-01 RR=-1.957178102489457E-04
2440650.500000000 = A.D. 1970-Mar-05 00:00:00.0000 TDB 
 X =-9.498256410966150E-01 Y = 2.666304018467761E-01 Z =-1.765078649576568E-04
 VX=-4.411666319770717E-03 VY=-1.625550224777476E-02 VZ= 4.593379801638994E-05
 LT= 5.697778037599132E-03 RG= 9.865396853794557E-01 RR=-1.458688544151759E-04
2440651.000000000 = A.D. 1970-Mar-05 12:00:00.0000 TDB 
 X =-9.520069750516373E-01 Y = 2.585075162340663E-01 Z =-1.525617484741436E-04
 VX=-4.314923715201850E-03 VY=-1.623683879365775E-02 VZ= 4.972426798462422E-05
 LT= 5.697435224524892E-03 RG= 9.864803291356409E-01 RR=-9.074177936544404E-05
2440651.500000000 = A.D. 1970-Mar-06 00:00:00.0000 TDB 
 X =-9.541417479200021E-01 Y = 2.503926665300766E-01 Z =-1.269166254375855E-04
 VX=-4.225272392543286E-03 VY=-1.622354986186110E-02 VZ= 5.271718512262704E-05
 LT= 5.697258231869835E-03 RG= 9.864496838073946E-01 RR=-3.117829082189626E-05
2440652.000000000 = A.D. 1970-Mar-06 12:00:00.0000 TDB 
 X =-9.562332632585203E-01 Y = 2.422828914561399E-01 Z =-9.998858968558566E-05
 VX=-4.141709642096268E-03 VY=-1.621670410502032E-02 VZ= 5.484668308350982E-05
 LT= 5.697258479437610E-03 RG= 9.864497266724261E-01 RR= 3.183647497319886E-05
2440652.500000000 = A.D. 1970-Mar-07 00:00:00.0000 TDB 
 X =-9.582842747243794E-01 Y = 2.341747405839505E-01 Z =-7.222129071322212E-05
 VX=-4.063045093297373E-03 VY=-1.621718169118923E-02 VZ= 5.606890814130725E-05
 LT= 5.697444374654764E-03 RG= 9.864819134315161E-01 RR= 9.720792058255400E-05
2440653.000000000 = A.D. 1970-Mar-07 12:00:00.0000 TDB 
 X =-9.602969031563990E-01 Y = 2.260643793080442E-01 Z =-4.407428852056926E-05
 VX=-3.987946499549978E-03 VY=-1.622563341728954E-02 VZ= 5.636433405097548E-05
 LT= 5.697821057661130E-03 RG= 9.865471340722878E-01 RR= 1.637756943522434E-04
2440653.500000000 = A.D. 1970-Mar-08 00:00:00.0000 TDB 
 X =-9.622725793820075E-01 Y = 2.179477108499230E-01 Z =-1.601063302811448E-05
 VX=-3.914996051510564E-03 VY=-1.624245412743406E-02 VZ= 5.573851356968785E-05
 LT= 5.698390281977605E-03 RG= 9.866456922074731E-01 RR= 2.303631004366951E-04
2440654.000000000 = A.D. 1970-Mar-08 12:00:00.0000 TDB 
 X =-9.642120166877164E-01 Y = 2.098205073271922E-01 Z = 1.151551594937015E-05
 VX=-3.842751708040625E-03 VY=-1.626777332652109E-02 VZ= 5.422116754318142E-05
 LT= 5.699150440088441E-03 RG= 9.867773095043484E-01 RR= 2.958271771742940E-04
2440654.500000000 = A.D. 1970-Mar-09 00:00:00.0000 TDB 
 X =-9.661152139176002E-01 Y = 2.016785410611387E-01 Z = 3.807042052592980E-05
 VX=-3.769807347008697E-03 VY=-1.630146348586937E-02 VZ= 5.186374345049760E-05
 LT= 5.700096728375503E-03 RG= 9.869411542422155E-01 RR= 3.591043209040533E-04
2440655.000000000 = A.D. 1970-Mar-09 12:00:00.0000 TDB 
 X =-9.679814871294761E-01 Y = 1.935177076638170E-01 Z = 6.325075928149773E-05
 VX=-3.694845978630335E-03 VY=-1.634316411713384E-02 VZ= 4.873577669291898E-05
 LT= 5.701221432057169E-03 RG= 9.871358906480451E-01 RR= 4.192471732446622E-04
2440655.500000000 = A.D. 1970-Mar-10 00:00:00.0000 TDB 
 X =-9.698095251787251E-01 Y = 1.853341339160070E-01 Z = 8.669159795599144E-05
 VX=-3.616681672693065E-03 VY=-1.639231777867602E-02 VZ= 4.492051692674424E-05
 LT= 5.702514300508996E-03 RG= 9.873597438812328E-01 RR= 4.754500216063441E-04
2440656.000000000 = A.D. 1970-Mar-10 12:00:00.0000 TDB 
 X =-9.715974629059246E-01 Y = 1.771242656675175E-01 Z = 1.080720939717067E-04
 VX=-3.534287827243639E-03 VY=-1.644821312947776E-02 VZ= 4.051031840927076E-05
 LT= 5.703962978014909E-03 RG= 9.876105746158576E-01 RR= 5.270617847171682E-04
2440656.500000000 = A.D. 1970-Mar-11 00:00:00.0000 TDB 
 X =-9.733429649383523E-01 Y = 1.688849334964916E-01 Z = 1.271189327364777E-04
 VX=-3.446811460688259E-03 VY=-1.651003004599263E-02 VZ= 3.560224389494631E-05
 LT= 5.705553454836822E-03 RG= 9.878859571409647E-01 RR= 5.735873478214150E-04
2440657.000000000 = A.D. 1970-Mar-11 12:00:00.0000 TDB 
 X =-9.750433134058487E-01 Y = 1.606133962113837E-01 Z = 1.436076928694103E-04
 VX=-3.353574923768692E-03 VY=-1.657688250685923E-02 VZ= 3.029422208124196E-05
 LT= 5.707270507639068E-03 RG= 9.881832556176918E-01 RR= 6.146792656450285E-04
2440657.500000000 = A.D. 1970-Mar-12 00:00:00.0000 TDB 
 X =-9.766954938790086E-01 Y = 1.523073641470766E-01 Z = 1.573624740064435E-04
 VX=-3.254067557875759E-03 VY=-1.664785612099553E-02 VZ= 2.468196314675573E-05
 LT= 5.709098105250344E-03 RG= 9.884996943347726E-01 RR= 6.501225278716793E-04
2440658.000000000 = A.D. 1970-Mar-12 12:00:00.0000 TDB 
 X =-9.782962752499043E-01 Y = 1.439650054389275E-01 Z = 1.682541897365158E-04
 VX=-3.147930320856912E-03 VY=-1.672203849364675E-02 VZ= 1.885670632753422E-05
 LT= 5.711019763830445E-03 RG= 9.888324192037493E-01 RR= 6.798152089450012E-04
2440658.500000000 = A.D. 1970-Mar-13 00:00:00.0000 TDB 
 X =-9.798422807946494E-01 Y = 1.355849390521042E-01 Z = 1.761979376340754E-04
 VX=-3.034936359555067E-03 VY=-1.679854182524498E-02 VZ= 1.290376861708680E-05
 LT= 5.713018843323441E-03 RG= 9.891785490882506E-01 RR= 7.037475381285232E-04
2440659.000000000 = A.D. 1970-Mar-13 12:00:00.0000 TDB 
 X =-9.813300490567318E-01 Y = 1.271662184014060E-01 Z = 1.811498238203099E-04
 VX=-2.914970103672451E-03 VY=-1.687651806414087E-02 VZ= 6.901793291754373E-06
 LT= 5.715078783682350E-03 RG= 9.895352167050249E-01 RR= 7.219814020096536E-04
2440659.500000000 = A.D. 1970-Mar-14 00:00:00.0000 TDB 
 X =-9.827560843352572E-01 Y = 1.187083090723197E-01 Z = 1.831035583789620E-04
 VX=-2.788006870992549E-03 VY=-1.695516753646377E-02 VZ= 9.225603199891325E-07
 LT= 5.717183284295435E-03 RG= 9.898995996906402E-01 RR= 7.346316904222103E-04
2440660.000000000 = A.D. 1970-Mar-14 12:00:00.0000 TDB 
 X =-9.841168974019603E-01 Y = 1.102110636048626E-01 Z = 1.820870656452370E-04
 VX=-2.654094357021917E-03 VY=-1.703374228217475E-02 VZ=-4.968788824144170E-06
 LT= 5.719316433286066E-03 RG= 9.902689429890624E-01 RR= 7.418503330875433E-04
2440660.500000000 = A.D. 1970-Mar-15 00:00:00.0000 TDB 
 X =-9.854090376150584E-01 Y = 1.016746956600450E-01 Z = 1.781592812774156E-04
 VX=-2.513336828683394E-03 VY=-1.711154540355776E-02 VZ=-1.071325055676085E-05
 LT= 5.721462795109185E-03 RG= 9.906405740185124E-01 RR= 7.438134122869271E-04
